{"type": "FeatureCollection", "features": [ {"type": "Feature", "properties": {"norad_id": 33492, "name": "GOSAT (IBUKI)", "group": "resource", "lat": 4.0359881139371145, "lon": 91.39718749710632, "alt_km": 671.2979350979476, "timestamp": "2025-12-09T07:41:32.859568+00:00", "meta": {"OBJECT_NAME": "GOSAT (IBUKI)", "OBJECT_ID": "2009-002A", "EPOCH": "2025-12-08T21:51:20.647296", "MEAN_MOTION": 14.67542674, "ECCENTRICITY": 9.683e-05, "INCLINATION": 98.0769, "RA_OF_ASC_NODE": 91.5672, "ARG_OF_PERICENTER": 88.8433, "MEAN_ANOMALY": 271.2882, "EPHEMERIS_TYPE": 0, "CLASSIFICATION_TYPE": "U", "NORAD_CAT_ID": 33492, "ELEMENT_SET_NO": 999, "REV_AT_EPOCH": 90355, "BSTAR": 0.00026074977, "MEAN_MOTION_DOT": 1.431e-05, "MEAN_MOTION_DDOT": 0}, "tle": {"line1": "1 33492U 09002A   25342.91065564  .00001431  00000+0  26075-3 0  9995", "line2": "2 33492  98.0769  91.5672 0000968  88.8433 271.2882 14.67542674903557"}}, "geometry": {"type": "Point", "coordinates": [91.39718749710632, 4.0359881139371145]}}, {"type": "Feature", "properties": {"norad_id": 35681, "name": "DEIMOS-1", "group": "resource", "lat": -8.920590419576461, "lon": 145.30172684037933, "alt_km": 649.5346342470048, "timestamp": "2025-12-09T07:41:32.859579+00:00", "meta": {"OBJECT_NAME": "DEIMOS-1", "OBJECT_ID": "2009-041A", "EPOCH": "2025-12-08T23:35:32.349120", "MEAN_MOTION": 14.74944279, "ECCENTRICITY": 0.00027139, "INCLINATION": 97.7145, "RA_OF_ASC_NODE": 143.7609, "ARG_OF_PERICENTER": 85.3579, "MEAN_ANOMALY": 274.7941, "EPHEMERIS_TYPE": 0, "CLASSIFICATION_TYPE": "U", "NORAD_CAT_ID": 35681, "ELEMENT_SET_NO": 999, "REV_AT_EPOCH": 87884, "BSTAR": 0.00018870686, "MEAN_MOTION_DOT": 1.22e-05, "MEAN_MOTION_DDOT": 0}, "tle": {"line1": "1 35681U 09041A   25342.98301330  .00001220  00000+0  18871-3 0  9992", "line2": "2 35681  97.7145 143.7609 0002713  85.3579 274.7941 14.74944279878848"}}, "geometry": {"type": "Point", "coordinates": [145.30172684037933, -8.920590419576461]}}, {"type": "Feature", "properties": {"norad_id": 35682, "name": "DUBAISAT-1", "group": "resource", "lat": -68.3860111552569, "lon": 134.78330328207707, "alt_km": 648.1818631265096, "timestamp": "2025-12-09T07:41:32.859590+00:00", "meta": {"OBJECT_NAME": "DUBAISAT-1", "OBJECT_ID": "2009-041B", "EPOCH": "2025-12-08T22:14:12.682752", "MEAN_MOTION": 14.74586479, "ECCENTRICITY": 0.00097882, "INCLINATION": 97.979, "RA_OF_ASC_NODE": 113.6627, "ARG_OF_PERICENTER": 327.7972, "MEAN_ANOMALY": 32.2638, "EPHEMERIS_TYPE": 0, "CLASSIFICATION_TYPE": "U", "NORAD_CAT_ID": 35682, "ELEMENT_SET_NO": 999, "REV_AT_EPOCH": 87705, "BSTAR": 0.00030199695, "MEAN_MOTION_DOT": 1.963e-05, "MEAN_MOTION_DDOT": 0}, "tle": {"line1": "1 35682U 09041B   25342.92653568  .00001963  00000+0  30200-3 0  9994", "line2": "2 35682  97.9790 113.6627 0009788 327.7972  32.2638 14.74586479877058"}}, "geometry": {"type": "Point", "coordinates": [134.78330328207707, -68.3860111552569]}}, {"type": "Feature", "properties": {"norad_id": 35931, "name": "OCEANSAT-2", "group": "resource", "lat": -50.202390388983304, "lon": -5.737068496331993, "alt_km": 904.9664837220143, "timestamp": "2025-12-09T07:41:32.859601+00:00", "meta": {"OBJECT_NAME": "OCEANSAT-2", "OBJECT_ID": "2009-051A", "EPOCH": "2025-12-08T23:21:23.998752", "MEAN_MOTION": 13.99625606, "ECCENTRICITY": 0.00163633, "INCLINATION": 98.2225, "RA_OF_ASC_NODE": 343.9559, "ARG_OF_PERICENTER": 54.86, "MEAN_ANOMALY": 305.4097, "EPHEMERIS_TYPE": 0, "CLASSIFICATION_TYPE": "U", "NORAD_CAT_ID": 35931, "ELEMENT_SET_NO": 999, "REV_AT_EPOCH": 85272, "BSTAR": -6.194874e-05, "MEAN_MOTION_DOT": -1.28e-06, "MEAN_MOTION_DDOT": 0}, "tle": {"line1": "1 35931U 09051A   25342.97319443 -.00000128  00000+0 -61949-4 0  9997", "line2": "2 35931  98.2225 343.9559 0016363  54.8600 305.4097 13.99625606852720"}}, "geometry": {"type": "Point", "coordinates": [-5.737068496331993, -50.202390388983304]}}, {"type": "Feature", "properties": {"norad_id": 35946, "name": "WORLDVIEW-2 (WV-2)", "group": "resource", "lat": -36.82902384302374, "lon": 60.86435919484083, "alt_km": 774.0438130357952, "timestamp": "2025-12-09T07:41:32.859612+00:00", "meta": {"OBJECT_NAME": "WORLDVIEW-2 (WV-2)", "OBJECT_ID": "2009-055A", "EPOCH": "2025-12-08T21:50:36.686112", "MEAN_MOTION": 14.37649921, "ECCENTRICITY": 0.00053787, "INCLINATION": 98.4764, "RA_OF_ASC_NODE": 54.0477, "ARG_OF_PERICENTER": 76.1323, "MEAN_ANOMALY": 284.0462, "EPHEMERIS_TYPE": 0, "CLASSIFICATION_TYPE": "U", "NORAD_CAT_ID": 35946, "ELEMENT_SET_NO": 999, "REV_AT_EPOCH": 84830, "BSTAR": 0.00011462194, "MEAN_MOTION_DOT": 3.01e-06, "MEAN_MOTION_DDOT": 0}, "tle": {"line1": "1 35946U 09055A   25342.91014683  .00000301  00000+0  11462-3 0  9994", "line2": "2 35946  98.4764  54.0477 0005378  76.1323 284.0462 14.37649921848304"}}, "geometry": {"type": "Point", "coordinates": [60.86435919484083, -36.82902384302374]}}, {"type": "Feature", "properties": {"norad_id": 36036, "name": "SMOS", "group": "resource", "lat": -26.916502717444516, "lon": 172.74160939121643, "alt_km": 765.3563306949745, "timestamp": "2025-12-09T07:41:32.859622+00:00", "meta": {"OBJECT_NAME": "SMOS", "OBJECT_ID": "2009-059A", "EPOCH": "2025-12-08T23:28:44.417568", "MEAN_MOTION": 14.39735837, "ECCENTRICITY": 0.000111, "INCLINATION": 98.4383, "RA_OF_ASC_NODE": 168.0824, "ARG_OF_PERICENTER": 84.6001, "MEAN_ANOMALY": 275.5314, "EPHEMERIS_TYPE": 0, "CLASSIFICATION_TYPE": "U", "NORAD_CAT_ID": 36036, "ELEMENT_SET_NO": 999, "REV_AT_EPOCH": 84608, "BSTAR": 0.00020223464, "MEAN_MOTION_DOT": 5.9e-06, "MEAN_MOTION_DDOT": 0}, "tle": {"line1": "1 36036U 09059A   25342.97829187  .00000590  00000+0  20223-3 0  9993", "line2": "2 36036  98.4383 168.0824 0001110  84.6001 275.5314 14.39735837846089"}}, "geometry": {"type": "Point", "coordinates": [172.74160939121643, -26.916502717444516]}}, {"type": "Feature", "properties": {"norad_id": 36110, "name": "YAOGAN-7", "group": "resource", "lat": 50.45556399714739, "lon": -144.75579709743477, "alt_km": 639.6454882196131, "timestamp": "2025-12-09T07:41:32.859633+00:00", "meta": {"OBJECT_NAME": "YAOGAN-7", "OBJECT_ID": "2009-069A", "EPOCH": "2025-12-08T15:12:38.687040", "MEAN_MOTION": 14.77723918, "ECCENTRICITY": 0.0023506, "INCLINATION": 98.0303, "RA_OF_ASC_NODE": 224.4054, "ARG_OF_PERICENTER": 295.2737, "MEAN_ANOMALY": 64.6037, "EPHEMERIS_TYPE": 0, "CLASSIFICATION_TYPE": "U", "NORAD_CAT_ID": 36110, "ELEMENT_SET_NO": 999, "REV_AT_EPOCH": 86148, "BSTAR": 0.00019724, "MEAN_MOTION_DOT": 1.367e-05, "MEAN_MOTION_DDOT": 0}, "tle": {"line1": "1 36110U 09069A   25342.63378110  .00001367  00000+0  19724-3 0  9992", "line2": "2 36110  98.0303 224.4054 0023506 295.2737  64.6037 14.77723918861480"}}, "geometry": {"type": "Point", "coordinates": [-144.75579709743477, 50.45556399714739]}}, {"type": "Feature", "properties": {"norad_id": 36605, "name": "TANDEM-X", "group": "resource", "lat": 31.838747186262573, "lon": 173.40969263860023, "alt_km": 505.9309200547932, "timestamp": "2025-12-09T07:41:32.859643+00:00", "meta": {"OBJECT_NAME": "TANDEM-X", "OBJECT_ID": "2010-030A", "EPOCH": "2025-12-08T13:39:18.929376", "MEAN_MOTION": 15.19159019, "ECCENTRICITY": 0.0002067, "INCLINATION": 97.4453, "RA_OF_ASC_NODE": 348.0112, "ARG_OF_PERICENTER": 89.3333, "MEAN_ANOMALY": 270.8138, "EPHEMERIS_TYPE": 0, "CLASSIFICATION_TYPE": "U", "NORAD_CAT_ID": 36605, "ELEMENT_SET_NO": 999, "REV_AT_EPOCH": 85770, "BSTAR": 0.00014235, "MEAN_MOTION_DOT": 2.924e-05, "MEAN_MOTION_DDOT": 0}, "tle": {"line1": "1 36605U 10030A   25342.56896909  .00002924  00000+0  14235-3 0  9996", "line2": "2 36605  97.4453 348.0112 0002067  89.3333 270.8138 15.19159019857704"}}, "geometry": {"type": "Point", "coordinates": [173.40969263860023, 31.838747186262573]}}, {"type": "Feature", "properties": {"norad_id": 36795, "name": "CARTOSAT-2B", "group": "resource", "lat": -34.080695729717576, "lon": 37.77291905588206, "alt_km": 644.1525840841077, "timestamp": "2025-12-09T07:41:32.859654+00:00", "meta": {"OBJECT_NAME": "CARTOSAT-2B", "OBJECT_ID": "2010-035A", "EPOCH": "2025-12-08T23:43:41.723040", "MEAN_MOTION": 14.78781348, "ECCENTRICITY": 0.00129476, "INCLINATION": 97.7853, "RA_OF_ASC_NODE": 32.1408, "ARG_OF_PERICENTER": 88.3447, "MEAN_ANOMALY": 271.9247, "EPHEMERIS_TYPE": 0, "CLASSIFICATION_TYPE": "U", "NORAD_CAT_ID": 36795, "ELEMENT_SET_NO": 999, "REV_AT_EPOCH": 83174, "BSTAR": 0.00016862384, "MEAN_MOTION_DOT": 1.191e-05, "MEAN_MOTION_DDOT": 0}, "tle": {"line1": "1 36795U 10035A   25342.98867735  .00001191  00000+0  16862-3 0  9995", "line2": "2 36795  97.7853  32.1408 0012947  88.3447 271.9247 14.78781348831742"}}, "geometry": {"type": "Point", "coordinates": [37.77291905588206, -34.080695729717576]}}, {"type": "Feature", "properties": {"norad_id": 36834, "name": "YAOGAN-10", "group": "resource", "lat": -25.681665214773137, "lon": 7.001566409000724, "alt_km": 620.8522592341405, "timestamp": "2025-12-09T07:41:32.859665+00:00", "meta": {"OBJECT_NAME": "YAOGAN-10", "OBJECT_ID": "2010-038A", "EPOCH": "2025-12-08T23:58:38.643168", "MEAN_MOTION": 14.84583858, "ECCENTRICITY": 0.00013969, "INCLINATION": 97.9141, "RA_OF_ASC_NODE": 2.847, "ARG_OF_PERICENTER": 82.2182, "MEAN_ANOMALY": 334.9652, "EPHEMERIS_TYPE": 0, "CLASSIFICATION_TYPE": "U", "NORAD_CAT_ID": 36834, "ELEMENT_SET_NO": 999, "REV_AT_EPOCH": 82898, "BSTAR": 0.00030748422, "MEAN_MOTION_DOT": 2.542e-05, "MEAN_MOTION_DDOT": 0}, "tle": {"line1": "1 36834U 10038A   25342.99905837  .00002542  00000+0  30748-3 0  9999", "line2": "2 36834  97.9141   2.8470 0001396  82.2182 334.9652 14.84583858828981"}}, "geometry": {"type": "Point", "coordinates": [7.001566409000724, -25.681665214773137]}}]}